ORBCOMM FM33            
1 25983U 99065D   25046.87375666  .00002752  00000+0  92007-3 0  9997
2 25983  45.0269 215.5331 0009563 172.2233 187.8766 14.39455462318589
ORBCOMM FM36            
1 25984U 99065E   25046.88698897  .00002582  00000+0  90002-3 0  9997
2 25984  45.0394 305.5324 0003970  43.7087 316.4076 14.37564251316965
ORBCOMM FM35            
1 25985U 99065F   25046.71281486  .00001715  00000+0  62528-3 0  9991
2 25985  45.0408 310.4567 0002753 134.9583 225.1489 14.36621155317318
ORBCOMM FM34            
1 25986U 99065G   25046.89056302  .00002159  00000+0  77424-3 0  9992
2 25986  45.0395 310.1251 0003846  80.2534 279.8749 14.36669287317452
ORBCOMM FM38            
1 33060U 08031A   25046.83488468  .00004579  00000+0  62021-3 0  9998
2 33060  48.4392 173.2359 0006393 238.8601 121.1688 14.80400832896766
ORBCOMM FM41            
1 33061U 08031B   25047.48821779  .00004578  00000+0  62545-3 0  9997
2 33061  48.4427 177.5050 0005509 228.6242 172.3085 14.80032783896795
ORBCOMM FM29            
1 33062U 08031C   25046.75588257  .00004550  00000+0  62109-3 0  9994
2 33062  48.4378 188.9253 0007243 222.7740 281.4092 14.80076370896157
ORBCOMM FM39            
1 33063U 08031D   25046.77965004  .00004059  00000+0  57471-3 0  9996
2 33063  48.4386 211.7966 0007894 197.5197 162.5446 14.78743597895824
